STARLINK-36588          
1 67573U 26016N   26053.65652678  .00233535  00000+0  15230-2 0  9997
2 67573  97.2864 113.3515 0002231 102.3495 257.8020 15.75206158  4432
STARLINK-36594          
1 67574U 26016P   26053.83336806 -.00173979  00000+0 -11854-2 0  9995
2 67574  97.2844 113.6255 0001581 109.1101  15.1329 15.75266664  5718
STARLINK-36400          
1 67575U 26016Q   26053.70241008  .00321208  00000+0  20725-2 0  9996
2 67575  97.2852 113.4422 0001817  66.9435 293.2022 15.75211460  4446
STARLINK-36591          
1 67576U 26016R   26053.69041861  .00212729  00000+0  13888-2 0  9999
2 67576  97.2828 113.4566 0003651  81.4665 278.7013 15.75236453  4441
STARLINK-36590          
1 67577U 26016S   26053.70629036  .00352020  00000+0  22624-2 0  9995
2 67577  97.2856 113.4356 0001569  89.0422 271.1023 15.75216624  4447
STARLINK-36613          
1 67578U 26016T   26053.67038811  .00412064  00000+0  20497-2 0  9998
2 67578  97.2846 113.4863 0001182 124.3367 235.8013 15.80840479  4445
STARLINK-36571          
1 67579U 26016U   26052.69373102  .00232707  00000+0  15217-2 0  9993
2 67579  97.2837 112.3669 0001304  70.6165 289.5241 15.75147712  4288
STARLINK-36612          
1 67580U 26016V   26051.13575919  .00083853  00000+0  43353-3 0  9992
2 67580  97.2829 110.8096 0001622  91.3110 268.8344 15.80855073  4041
STARLINK-36632          
1 67581U 26016W   26052.68173112  .00213112  00000+0  13951-2 0  9996
2 67581  97.2837 112.3807 0001507 155.5160 204.6177 15.75176348  4281
STARLINK-36609          
1 67582U 26016X   26052.69761355  .00331109  00000+0  21364-2 0  9994
2 67582  97.2841 112.3596 0001105  80.1847 279.9543 15.75182753  4280
STARLINK-36577          
1 67583U 26016Y   26052.90707415 -.00775849  00000+0 -47878-2 0  9999
2 67583  97.2833 112.6861 0002895 182.6464 177.4789 15.79062778  4327
STARLINK-36419          
1 67584U 26016Z   26052.66586104  .00378837  00000+0  24139-2 0  9992
2 67584  97.2845 112.4044 0002250  42.0314 318.1123 15.75341513  4284
