CCSDS_OMM_VERS = 2.0
CREATION_DATE  = 
ORIGINATOR     = 

OBJECT_NAME    = STARLINK-36588
OBJECT_ID      = 2026-016N
CENTER_NAME    = EARTH
REF_FRAME      = TEME
TIME_SYSTEM    = UTC
MEAN_ELEMENT_THEORY = SGP/SGP4

EPOCH          = 2026-02-22T15:45:23.913792
MEAN_MOTION    = 15.75206158
ECCENTRICITY   = .0002231
INCLINATION    = 97.2864
RA_OF_ASC_NODE = 113.3515
ARG_OF_PERICENTER = 102.3495
MEAN_ANOMALY   = 257.8020

EPHEMERIS_TYPE = 0
CLASSIFICATION_TYPE = U
NORAD_CAT_ID   = 67573
ELEMENT_SET_NO = 999
REV_AT_EPOCH   = 443
BSTAR          = .1523E-2
MEAN_MOTION_DOT = .233535E-2
MEAN_MOTION_DDOT = 0

CCSDS_OMM_VERS = 2.0
CREATION_DATE  = 
ORIGINATOR     = 

OBJECT_NAME    = STARLINK-36594
OBJECT_ID      = 2026-016P
CENTER_NAME    = EARTH
REF_FRAME      = TEME
TIME_SYSTEM    = UTC
MEAN_ELEMENT_THEORY = SGP/SGP4

EPOCH          = 2026-02-22T20:00:03.000384
MEAN_MOTION    = 15.75266664
ECCENTRICITY   = .0001581
INCLINATION    = 97.2844
RA_OF_ASC_NODE = 113.6255
ARG_OF_PERICENTER = 109.1101
MEAN_ANOMALY   = 15.1329

EPHEMERIS_TYPE = 0
CLASSIFICATION_TYPE = U
NORAD_CAT_ID   = 67574
ELEMENT_SET_NO = 999
REV_AT_EPOCH   = 571
BSTAR          = -.11854E-2
MEAN_MOTION_DOT = -.173979E-2
MEAN_MOTION_DDOT = 0

CCSDS_OMM_VERS = 2.0
CREATION_DATE  = 
ORIGINATOR     = 

OBJECT_NAME    = STARLINK-36400
OBJECT_ID      = 2026-016Q
CENTER_NAME    = EARTH
REF_FRAME      = TEME
TIME_SYSTEM    = UTC
MEAN_ELEMENT_THEORY = SGP/SGP4

EPOCH          = 2026-02-22T16:51:28.230912
MEAN_MOTION    = 15.75211460
ECCENTRICITY   = .0001817
INCLINATION    = 97.2852
RA_OF_ASC_NODE = 113.4422
ARG_OF_PERICENTER = 66.9435
MEAN_ANOMALY   = 293.2022

EPHEMERIS_TYPE = 0
CLASSIFICATION_TYPE = U
NORAD_CAT_ID   = 67575
ELEMENT_SET_NO = 999
REV_AT_EPOCH   = 444
BSTAR          = .20725E-2
MEAN_MOTION_DOT = .321208E-2
MEAN_MOTION_DDOT = 0

CCSDS_OMM_VERS = 2.0
CREATION_DATE  = 
ORIGINATOR     = 

OBJECT_NAME    = STARLINK-36591
OBJECT_ID      = 2026-016R
CENTER_NAME    = EARTH
REF_FRAME      = TEME
TIME_SYSTEM    = UTC
MEAN_ELEMENT_THEORY = SGP/SGP4

EPOCH          = 2026-02-22T16:34:12.167904
MEAN_MOTION    = 15.75236453
ECCENTRICITY   = .0003651
INCLINATION    = 97.2828
RA_OF_ASC_NODE = 113.4566
ARG_OF_PERICENTER = 81.4665
MEAN_ANOMALY   = 278.7013

EPHEMERIS_TYPE = 0
CLASSIFICATION_TYPE = U
NORAD_CAT_ID   = 67576
ELEMENT_SET_NO = 999
REV_AT_EPOCH   = 444
BSTAR          = .13888E-2
MEAN_MOTION_DOT = .212729E-2
MEAN_MOTION_DDOT = 0

CCSDS_OMM_VERS = 2.0
CREATION_DATE  = 
ORIGINATOR     = 

OBJECT_NAME    = STARLINK-36590
OBJECT_ID      = 2026-016S
CENTER_NAME    = EARTH
REF_FRAME      = TEME
TIME_SYSTEM    = UTC
MEAN_ELEMENT_THEORY = SGP/SGP4

EPOCH          = 2026-02-22T16:57:03.487104
MEAN_MOTION    = 15.75216624
ECCENTRICITY   = .0001569
INCLINATION    = 97.2856
RA_OF_ASC_NODE = 113.4356
ARG_OF_PERICENTER = 89.0422
MEAN_ANOMALY   = 271.1023

EPHEMERIS_TYPE = 0
CLASSIFICATION_TYPE = U
NORAD_CAT_ID   = 67577
ELEMENT_SET_NO = 999
REV_AT_EPOCH   = 444
BSTAR          = .22624E-2
MEAN_MOTION_DOT = .35202E-2
MEAN_MOTION_DDOT = 0

CCSDS_OMM_VERS = 2.0
CREATION_DATE  = 
ORIGINATOR     = 

OBJECT_NAME    = STARLINK-36613
OBJECT_ID      = 2026-016T
CENTER_NAME    = EARTH
REF_FRAME      = TEME
TIME_SYSTEM    = UTC
MEAN_ELEMENT_THEORY = SGP/SGP4

EPOCH          = 2026-02-22T16:05:21.532704
MEAN_MOTION    = 15.80840479
ECCENTRICITY   = .0001182
INCLINATION    = 97.2846
RA_OF_ASC_NODE = 113.4863
ARG_OF_PERICENTER = 124.3367
MEAN_ANOMALY   = 235.8013

EPHEMERIS_TYPE = 0
CLASSIFICATION_TYPE = U
NORAD_CAT_ID   = 67578
ELEMENT_SET_NO = 999
REV_AT_EPOCH   = 444
BSTAR          = .20497E-2
MEAN_MOTION_DOT = .412064E-2
MEAN_MOTION_DDOT = 0

CCSDS_OMM_VERS = 2.0
CREATION_DATE  = 
ORIGINATOR     = 

OBJECT_NAME    = STARLINK-36571
OBJECT_ID      = 2026-016U
CENTER_NAME    = EARTH
REF_FRAME      = TEME
TIME_SYSTEM    = UTC
MEAN_ELEMENT_THEORY = SGP/SGP4

EPOCH          = 2026-02-21T16:38:58.360128
MEAN_MOTION    = 15.75147712
ECCENTRICITY   = .00013042
INCLINATION    = 97.2837
RA_OF_ASC_NODE = 112.3669
ARG_OF_PERICENTER = 70.6165
MEAN_ANOMALY   = 289.5241

EPHEMERIS_TYPE = 0
CLASSIFICATION_TYPE = U
NORAD_CAT_ID   = 67579
ELEMENT_SET_NO = 999
REV_AT_EPOCH   = 428
BSTAR          = .1521676E-2
MEAN_MOTION_DOT = .232707E-2
MEAN_MOTION_DDOT = 0

CCSDS_OMM_VERS = 2.0
CREATION_DATE  = 
ORIGINATOR     = 

OBJECT_NAME    = STARLINK-36612
OBJECT_ID      = 2026-016V
CENTER_NAME    = EARTH
REF_FRAME      = TEME
TIME_SYSTEM    = UTC
MEAN_ELEMENT_THEORY = SGP/SGP4

EPOCH          = 2026-02-20T03:15:29.594016
MEAN_MOTION    = 15.80855073
ECCENTRICITY   = .00016227
INCLINATION    = 97.2829
RA_OF_ASC_NODE = 110.8096
ARG_OF_PERICENTER = 91.3110
MEAN_ANOMALY   = 268.8344

EPHEMERIS_TYPE = 0
CLASSIFICATION_TYPE = U
NORAD_CAT_ID   = 67580
ELEMENT_SET_NO = 999
REV_AT_EPOCH   = 404
BSTAR          = .43353183E-3
MEAN_MOTION_DOT = .83853E-3
MEAN_MOTION_DDOT = 0

CCSDS_OMM_VERS = 2.0
CREATION_DATE  = 
ORIGINATOR     = 

OBJECT_NAME    = STARLINK-36632
OBJECT_ID      = 2026-016W
CENTER_NAME    = EARTH
REF_FRAME      = TEME
TIME_SYSTEM    = UTC
MEAN_ELEMENT_THEORY = SGP/SGP4

EPOCH          = 2026-02-21T16:21:41.568768
MEAN_MOTION    = 15.75176348
ECCENTRICITY   = .00015078
INCLINATION    = 97.2837
RA_OF_ASC_NODE = 112.3807
ARG_OF_PERICENTER = 155.5160
MEAN_ANOMALY   = 204.6177

EPHEMERIS_TYPE = 0
CLASSIFICATION_TYPE = U
NORAD_CAT_ID   = 67581
ELEMENT_SET_NO = 999
REV_AT_EPOCH   = 428
BSTAR          = .13951193E-2
MEAN_MOTION_DOT = .213112E-2
MEAN_MOTION_DDOT = 0

CCSDS_OMM_VERS = 2.0
CREATION_DATE  = 
ORIGINATOR     = 

OBJECT_NAME    = STARLINK-36609
OBJECT_ID      = 2026-016X
CENTER_NAME    = EARTH
REF_FRAME      = TEME
TIME_SYSTEM    = UTC
MEAN_ELEMENT_THEORY = SGP/SGP4

EPOCH          = 2026-02-21T16:44:33.810720
MEAN_MOTION    = 15.75182753
ECCENTRICITY   = .00011055
INCLINATION    = 97.2841
RA_OF_ASC_NODE = 112.3596
ARG_OF_PERICENTER = 80.1847
MEAN_ANOMALY   = 279.9543

EPHEMERIS_TYPE = 0
CLASSIFICATION_TYPE = U
NORAD_CAT_ID   = 67582
ELEMENT_SET_NO = 999
REV_AT_EPOCH   = 428
BSTAR          = .21364324E-2
MEAN_MOTION_DOT = .331109E-2
MEAN_MOTION_DDOT = 0

CCSDS_OMM_VERS = 2.0
CREATION_DATE  = 
ORIGINATOR     = 

OBJECT_NAME    = STARLINK-36577
OBJECT_ID      = 2026-016Y
CENTER_NAME    = EARTH
REF_FRAME      = TEME
TIME_SYSTEM    = UTC
MEAN_ELEMENT_THEORY = SGP/SGP4

EPOCH          = 2026-02-21T21:46:11.206560
MEAN_MOTION    = 15.79062778
ECCENTRICITY   = .00028953
INCLINATION    = 97.2833
RA_OF_ASC_NODE = 112.6861
ARG_OF_PERICENTER = 182.6464
MEAN_ANOMALY   = 177.4789

EPHEMERIS_TYPE = 0
CLASSIFICATION_TYPE = U
NORAD_CAT_ID   = 67583
ELEMENT_SET_NO = 999
REV_AT_EPOCH   = 432
BSTAR          = -.47877682E-2
MEAN_MOTION_DOT = -.775849E-2
MEAN_MOTION_DDOT = 0

CCSDS_OMM_VERS = 2.0
CREATION_DATE  = 
ORIGINATOR     = 

OBJECT_NAME    = STARLINK-36419
OBJECT_ID      = 2026-016Z
CENTER_NAME    = EARTH
REF_FRAME      = TEME
TIME_SYSTEM    = UTC
MEAN_ELEMENT_THEORY = SGP/SGP4

EPOCH          = 2026-02-21T15:58:50.393856
MEAN_MOTION    = 15.75341513
ECCENTRICITY   = .00022503
INCLINATION    = 97.2845
RA_OF_ASC_NODE = 112.4044
ARG_OF_PERICENTER = 42.0314
MEAN_ANOMALY   = 318.1123

EPHEMERIS_TYPE = 0
CLASSIFICATION_TYPE = U
NORAD_CAT_ID   = 67584
ELEMENT_SET_NO = 999
REV_AT_EPOCH   = 428
BSTAR          = .24139315E-2
MEAN_MOTION_DOT = .378837E-2
MEAN_MOTION_DDOT = 0

